STARLINK-2465_new
1 18124C 21027AJ  21326.16180198 -.00011425  00000-0 -76562-3 0  3267
2 18124  53.0563   3.0193 0001383  68.0740  34.7182 15.06404742    18
STARLINK-2465_old
1 28124C 21027AJ  21325.15259252  .00000246  00000-0  16484-4 0  3257
2 28124  53.0567   7.5498 0001321  67.3368 319.4044 15.06408550    10
